XRISM                   
1 57800U 23137A   23299.48091955  .00004111  00000+0  33020-3 0  9999
2 57800  31.0036  63.1718 0010341  46.3396 313.8095 14.98350282  7425
